NORAD_CAT_ID,OBJECT_NAME,OBJECT_TYPE,EPOCH,MEAN_MOTION,ECCENTRICITY,INCLINATION,RA_OF_ASC_NODE,ARG_OF_PERICENTER,MEAN_ANOMALY,BSTAR,MEAN_MOTION_DOT,MEAN_MOTION_DDOT,TLE_LINE0,TLE_LINE1,TLE_LINE2,SEMIMAJOR_AXIS,PERIOD,APOGEE,PERIGEE,DECAYED
53641.0,STARLINK-4588,PAYLOAD,2023-07-26 00:27:14,15.08834271,0.000175,53.2156,202.9816,96.0997,264.0195,0.00010436,1.373e-05,0.0,0 STARLINK-4588,1 53641U 22104BF  23207.01891895  .00001373  00000-0  10436-3 0  9994,2 53641  53.2156 202.9816 0001750  96.0997 264.0195 15.08834271 51657,6917.898,95.438,540.974,538.552,0.0
53641.0,STARLINK-4588,PAYLOAD,2023-07-26 05:13:23,15.08836747,0.0001753,53.2156,202.0897,95.5576,264.5616,0.00012192,1.653e-05,0.0,0 STARLINK-4588,1 53641U 22104BF  23207.21763828  .00001653  00000-0  12192-3 0  9992,2 53641  53.2156 202.0897 0001753  95.5576 264.5616 15.08836747 50660,6917.89,95.438,540.968,538.543,0.0
53641.0,STARLINK-4588,PAYLOAD,2023-07-27 06:39:34,15.08841968,0.0001776,53.2159,197.3316,98.649,261.4704,0.00012984,1.779e-05,0.0,0 STARLINK-4588,1 53641U 22104BF  23208.27747687  .00001779  00000-0  12984-3 0  9992,2 53641  53.2159 197.3316 0001776  98.6490 261.4704 15.08841968 50822,6917.874,95.437,540.968,538.511,0.0
53641.0,STARLINK-4588,PAYLOAD,2023-07-27 16:11:52,15.08840264,0.0001625,53.2152,195.548,93.3929,266.7249,0.00010554,1.392e-05,0.0,0 STARLINK-4588,1 53641U 22104BF  23208.67491878  .00001392  00000-0  10554-3 0  9996,2 53641  53.2152 195.5480 0001625  93.3929 266.7249 15.08840264 51909,6917.88,95.438,540.869,538.62,0.0
53641.0,STARLINK-4588,PAYLOAD,2023-07-28 00:08:49,15.08834889,0.0001842,53.2173,194.0621,97.5382,262.582,3.0388e-05,1.95e-06,0.0,0 STARLINK-4588,1 53641U 22104BF  23209.00612495  .00000195  00000-0  30388-4 0  9992,2 53641  53.2173 194.0621 0001842  97.5382 262.5820 15.08834889 50930,6917.896,95.438,541.035,538.487,0.0
53641.0,STARLINK-4588,PAYLOAD,2023-07-28 08:05:44,15.08835786,0.000173,53.2162,192.5734,93.8448,266.2742,2.7791e-05,1.54e-06,0.0,0 STARLINK-4588,1 53641U 22104BF  23209.33732476  .00000154  00000-0  27791-4 0  9999,2 53641  53.2162 192.5734 0001730  93.8448 266.2742 15.08835786 52005,6917.893,95.438,540.955,538.561,0.0
53641.0,STARLINK-4588,PAYLOAD,2023-07-29 06:21:08,15.08843425,0.0001723,53.2166,188.4099,92.1558,267.9631,4.4007e-05,4.12e-06,0.0,0 STARLINK-4588,1 53641U 22104BF  23210.26468063  .00000412  00000-0  44007-4 0  9997,2 53641  53.2166 188.4099 0001723  92.1558 267.9631 15.08843425 51129,6917.87,95.437,540.927,538.543,0.0
53641.0,STARLINK-4588,PAYLOAD,2023-07-30 07:47:18,15.08845394,0.0001703,53.2165,183.6516,93.2511,266.8676,0.0001441,2.006e-05,0.0,0 STARLINK-4588,1 53641U 22104BF  23211.32451640  .00002006  00000-0  14410-3 0  9993,2 53641  53.2165 183.6516 0001703  93.2511 266.8676 15.08845394 51289,6917.864,95.437,540.907,538.551,0.0
53641.0,STARLINK-4588,PAYLOAD,2023-07-30 15:44:14,15.08831638,0.000171,53.2161,182.1657,93.4583,266.6605,0.00018501,2.657e-05,0.0,0 STARLINK-4588,1 53641U 22104BF  23211.65572557  .00002657  00000-0  18501-3 0  9997,2 53641  53.2161 182.1657 0001710  93.4583 266.6605 15.08831638 51336,6917.906,95.438,540.954,538.588,0.0
53641.0,STARLINK-4588,PAYLOAD,2023-08-01 02:42:43,15.08842614,0.0001714,53.2166,175.6236,92.3903,267.7286,2.6947e-05,1.41e-06,0.0,0 STARLINK-4588,1 53641U 22104BF  23213.11300098  .00000141  00000-0  26947-4 0  9999,2 53641  53.2166 175.6236 0001714  92.3903 267.7286 15.08842614 51556,6917.872,95.437,540.923,538.552,0.0
53641.0,STARLINK-4588,PAYLOAD,2023-08-02 00:58:07,15.08833792,0.000168,53.217,171.4616,91.1691,268.9494,4.9099e-05,4.93e-06,0.0,0 STARLINK-4588,1 53641U 22104BF  23214.04036693  .00000493  00000-0  49099-4 0  9992,2 53641  53.2170 171.4616 0001680  91.1691 268.9494 15.08833792 51696,6917.899,95.438,540.927,538.602,0.0
53641.0,STARLINK-4588,PAYLOAD,2023-08-03 02:24:17,15.08840506,0.00016,53.2168,166.7029,96.8827,263.2347,9.3012e-06,-1.4e-06,0.0,0 STARLINK-4588,1 53641U 22104BF  23215.10020565 -.00000140  00000-0  93012-5 0  9996,2 53641  53.2168 166.7029 0001600  96.8827 263.2347 15.08840506 51857,6917.879,95.438,540.851,538.637,0.0
53641.0,STARLINK-4588,PAYLOAD,2023-08-04 07:01:14,15.08835311,0.0001602,53.2169,161.3492,99.7577,260.3596,4.2689e-05,3.91e-06,0.0,0 STARLINK-4588,1 53641U 22104BF  23216.29253243  .00000391  00000-0  42689-4 0  9998,2 53641  53.2169 161.3492 0001602  99.7577 260.3596 15.08835311 52032,6917.895,95.438,540.868,538.651,0.0
53641.0,STARLINK-4588,PAYLOAD,2023-08-05 02:05:51,15.08844938,0.0001539,53.217,157.7808,94.2167,265.9001,7.5588e-05,9.15e-06,0.0,0 STARLINK-4588,1 53641U 22104BF  23217.08740708  .00000915  00000-0  75588-4 0  9999,2 53641  53.2170 157.7808 0001539  94.2167 265.9001 15.08844938 52158,6917.865,95.437,540.795,538.666,0.0
53641.0,STARLINK-4588,PAYLOAD,2023-08-06 03:32:01,15.08845525,0.000141,53.2165,153.0237,99.9821,260.1331,0.0001014,1.326e-05,0.0,0 STARLINK-4588,1 53641U 22104BF  23218.14724532  .00001326  00000-0  10140-3 0  9993,2 53641  53.2165 153.0237 0001410  99.9821 260.1331 15.08845525 52318,6917.864,95.437,540.704,538.753,0.0
53641.0,STARLINK-4588,PAYLOAD,2023-08-06 19:25:54,15.08831028,0.0001346,53.2154,150.0522,91.1991,268.9155,-1.297e-05,-4.94e-06,0.0,0 STARLINK-4588,1 53641U 22104BF  23218.80965948 -.00000494  00000-0 -12970-4 0  9995,2 53641  53.2154 150.0522 0001346  91.1991 268.9155 15.08831028 52414,6917.908,95.438,540.704,538.842,0.0
53641.0,STARLINK-4588,PAYLOAD,2023-08-07 19:16:40,15.08851323,0.0001401,53.2183,145.5898,94.3291,265.7861,4.0987e-05,3.65e-06,0.0,0 STARLINK-4588,1 53641U 22104BF  23219.80324848  .00000365  00000-0  40987-4 0  9998,2 53641  53.2183 145.5898 0001401  94.3291 265.7861 15.08851323 52566,6917.846,95.437,540.68,538.742,0.0
53641.0,STARLINK-4588,PAYLOAD,2023-08-08 01:38:12,15.08861417,0.0001333,53.2174,144.4012,90.9072,269.2073,0.00015418,2.168e-05,0.0,0 STARLINK-4588,1 53641U 22104BF  23220.06819794  .00002168  00000-0  15418-3 0  9990,2 53641  53.2174 144.4012 0001333  90.9072 269.2073 15.08861417 52609,6917.815,95.436,540.602,538.758,0.0
53641.0,STARLINK-4588,PAYLOAD,2023-08-08 19:07:27,15.08844168,0.0001255,53.2158,141.1291,84.1395,275.974,0.00031969,4.804e-05,0.0,0 STARLINK-4588,1 53641U 22104BF  23220.79685109  .00004804  00000-0  31969-3 0  9999,2 53641  53.2158 141.1291 0001255  84.1395 275.9740 15.08844168 52711,6917.868,95.437,540.601,538.864,0.0
53641.0,STARLINK-4588,PAYLOAD,2023-08-10 04:30:33,15.08837182,0.0001692,53.2161,134.8849,85.0887,275.0298,-0.0001708,-3.005e-05,0.0,0 STARLINK-4588,1 53641U 22104BF  23222.18789288 -.00003005  00000-0 -17080-3 0  9999,2 53641  53.2161 134.8849 0001692  85.0887 275.0298 15.08837182 52924,6917.889,95.438,540.925,538.583,0.0
53641.0,STARLINK-4588,PAYLOAD,2023-08-11 02:45:56,15.08867099,0.000114,53.2163,130.722,78.9018,281.2102,-0.0002819,-4.775e-05,0.0,0 STARLINK-4588,1 53641U 22104BF  23223.11524040 -.00004775  00000-0 -28190-3 0  9995,2 53641  53.2163 130.7220 0001140  78.9018 281.2102 15.08867099 53068,6917.798,95.436,540.451,538.874,0.0
53641.0,STARLINK-4588,PAYLOAD,2023-08-11 10:42:53,15.0883675,0.0001183,53.2188,129.2355,84.6432,275.4695,0.0001486,2.078e-05,0.0,0 STARLINK-4588,1 53641U 22104BF  23223.44645293  .00002078  00000-0  14860-3 0  9996,2 53641  53.2188 129.2355 0001183  84.6432 275.4695 15.08836750 53116,6917.89,95.438,540.574,538.937,0.0
53641.0,STARLINK-4588,PAYLOAD,2023-08-12 01:01:22,15.08834276,9.75e-05,53.2177,126.5596,73.1801,286.9298,8.4965e-05,1.065e-05,0.0,0 STARLINK-4588,1 53641U 22104BF  23224.04261894  .00001065  00000-0  84965-4 0  9993,2 53641  53.2177 126.5596 0000975  73.1801 286.9298 15.08834276 53209,6917.898,95.438,540.437,539.088,0.0
53641.0,STARLINK-4588,PAYLOAD,2023-08-13 02:27:32,15.08840789,0.0001484,53.2186,121.8008,76.7944,283.3214,0.00019633,2.838e-05,0.0,0 STARLINK-4588,1 53641U 22104BF  23225.10245474  .00002838  00000-0  19633-3 0  9995,2 53641  53.2186 121.8008 0001484  76.7944 283.3214 15.08840789 53360,6917.878,95.438,540.77,538.716,0.0
53641.0,STARLINK-4588,PAYLOAD,2023-08-14 02:18:19,15.08841689,0.0001165,53.2167,117.3408,93.0947,267.0178,6.8973e-05,8.1e-06,0.0,0 STARLINK-4588,1 53641U 22104BF  23226.09605728  .00000810  00000-0  68973-4 0  9996,2 53641  53.2167 117.3408 0001165  93.0947 267.0178 15.08841689 53519,6917.875,95.437,540.546,538.934,0.0
53641.0,STARLINK-4588,PAYLOAD,2023-08-15 16:27:34,15.08841383,0.0001431,53.2176,110.2036,99.4682,260.6472,0.00010821,1.435e-05,0.0,0 STARLINK-4588,1 53641U 22104BF  23227.68581727  .00001435  00000-0  10821-3 0  9996,2 53641  53.2176 110.2036 0001431  99.4682 260.6472 15.08841383 53753,6917.876,95.437,540.731,538.751,0.0
53641.0,STARLINK-4588,PAYLOAD,2023-08-16 01:59:53,15.08821731,0.0001423,53.2172,108.4191,101.1893,258.9259,0.00053085,8.166e-05,0.0,0 STARLINK-4588,1 53641U 22104BF  23228.08326058  .00008166  00000-0  53085-3 0  9992,2 53641  53.2172 108.4191 0001423 101.1893 258.9259 15.08821731 53811,6917.936,95.439,540.786,538.817,0.0
53641.0,STARLINK-4588,PAYLOAD,2023-08-17 00:15:17,15.08843946,0.0001453,53.215,104.2576,93.7146,266.4012,5.5626e-05,5.98e-06,0.0,0 STARLINK-4588,1 53641U 22104BF  23229.01061828  .00000598  00000-0  55626-4 0  9992,2 53641  53.2150 104.2576 0001453  93.7146 266.4012 15.08843946 53956,6917.868,95.437,540.738,538.728,0.0
53641.0,STARLINK-4588,PAYLOAD,2023-08-18 15:59:56,15.08834206,0.0001678,53.2232,96.8292,100.158,259.9602,4.1079e-05,3.66e-06,0.0,0 STARLINK-4588,1 53641U 22104BF  23230.66662679  .00000366  00000-0  41079-4 0  9996,2 53641  53.2232  96.8292 0001678 100.1580 259.9602 15.08834206 54202,6917.898,95.438,540.924,538.602,0.0
53641.0,STARLINK-4588,PAYLOAD,2023-08-19 01:32:14,15.08841958,0.0001333,53.2163,95.0387,92.4173,267.6971,0.00010365,1.362e-05,0.0,0 STARLINK-4588,1 53641U 22104BF  23231.06406084  .00001362  00000-0  10365-3 0  9997,2 53641  53.2163  95.0387 0001333  92.4173 267.6971 15.08841958 54263,6917.874,95.437,540.662,538.817,0.0
